{"type": "FeatureCollection", "features": [{"type": "Feature", "properties": {"norad_id": 24876, "name": "GPS BIIR-2  (PRN 13)", "group": "gps-ops", "lat": -51.838740340860525, "lon": 46.750451071800136, "alt_km": 20346.843777676942, "timestamp": "2025-12-01T03:58:49.190981+00:00", "meta": {"OBJECT_NAME": "GPS BIIR-2  (PRN 13)", "OBJECT_ID": "1997-035A", "EPOCH": "2025-11-30T06:26:10.116096", "MEAN_MOTION": 2.00563468, "ECCENTRICITY": 0.0096627, "INCLINATION": 55.8891, "RA_OF_ASC_NODE": 106.3568, "ARG_OF_PERICENTER": 57.0227, "MEAN_ANOMALY": 303.8862, "EPHEMERIS_TYPE": 0, "CLASSIFICATION_TYPE": "U", "NORAD_CAT_ID": 24876, "ELEMENT_SET_NO": 999, "REV_AT_EPOCH": 20796, "BSTAR": 0, "MEAN_MOTION_DOT": 5.3e-07, "MEAN_MOTION_DDOT": 0, "GROUP": "gps-ops"}, "tle": {"line1": "1 24876U 97035A   25334.26817264  .00000053  00000+0  00000+0 0  9990", "line2": "2 24876  55.8891 106.3568 0096627  57.0227 303.8862  2.00563468207965"}}, "geometry": {"type": "Point", "coordinates": [46.750451071800136, -51.838740340860525]}}, {"type": "Feature", "properties": {"norad_id": 26360, "name": "GPS BIIR-4  (PRN 20)", "group": "gps-ops", "lat": 17.13458727235779, "lon": 39.7672955558948, "alt_km": 20259.01425812501, "timestamp": "2025-12-01T03:58:49.191010+00:00", "meta": {"OBJECT_NAME": "GPS BIIR-4  (PRN 20)", "OBJECT_ID": "2000-025A", "EPOCH": "2025-11-30T17:22:55.601760", "MEAN_MOTION": 2.00568582, "ECCENTRICITY": 0.0038757, "INCLINATION": 55.0381, "RA_OF_ASC_NODE": 27.3241, "ARG_OF_PERICENTER": 240.7993, "MEAN_ANOMALY": 181.1777, "EPHEMERIS_TYPE": 0, "CLASSIFICATION_TYPE": "U", "NORAD_CAT_ID": 26360, "ELEMENT_SET_NO": 999, "REV_AT_EPOCH": 18729, "BSTAR": 0, "MEAN_MOTION_DOT": -6.8e-07, "MEAN_MOTION_DDOT": 0, "GROUP": "gps-ops"}, "tle": {"line1": "1 26360U 00025A   25334.72425465 -.00000068  00000+0  00000+0 0  9999", "line2": "2 26360  55.0381  27.3241 0038757 240.7993 181.1777  2.00568582187299"}}, "geometry": {"type": "Point", "coordinates": [39.7672955558948, 17.13458727235779]}}, {"type": "Feature", "properties": {"norad_id": 26407, "name": "GPS BIIR-5  (PRN 22)", "group": "gps-ops", "lat": -30.950456587848485, "lon": 67.94809133217996, "alt_km": 20139.104114991093, "timestamp": "2025-12-01T03:58:49.191026+00:00", "meta": {"OBJECT_NAME": "GPS BIIR-5  (PRN 22)", "OBJECT_ID": "2000-040A", "EPOCH": "2025-11-30T20:53:27.058848", "MEAN_MOTION": 2.0056769, "ECCENTRICITY": 0.0126668, "INCLINATION": 54.8938, "RA_OF_ASC_NODE": 223.0411, "ARG_OF_PERICENTER": 301.5854, "MEAN_ANOMALY": 65.5277, "EPHEMERIS_TYPE": 0, "CLASSIFICATION_TYPE": "U", "NORAD_CAT_ID": 26407, "ELEMENT_SET_NO": 999, "REV_AT_EPOCH": 18597, "BSTAR": 0, "MEAN_MOTION_DOT": 4.3e-07, "MEAN_MOTION_DDOT": 0, "GROUP": "gps-ops"}, "tle": {"line1": "1 26407U 00040A   25334.87045207  .00000043  00000+0  00000+0 0  9998", "line2": "2 26407  54.8938 223.0411 0126668 301.5854  65.5277  2.00567690185973"}}, "geometry": {"type": "Point", "coordinates": [67.94809133217996, -30.950456587848485]}}, {"type": "Feature", "properties": {"norad_id": 27663, "name": "GPS BIIR-8  (PRN 16)", "group": "gps-ops", "lat": -4.358089044190009, "lon": -140.22497102776623, "alt_km": 19965.18555567081, "timestamp": "2025-12-01T03:58:49.191045+00:00", "meta": {"OBJECT_NAME": "GPS BIIR-8  (PRN 16)", "OBJECT_ID": "2003-005A", "EPOCH": "2025-11-30T16:30:32.457888", "MEAN_MOTION": 2.00571469, "ECCENTRICITY": 0.0146957, "INCLINATION": 54.9265, "RA_OF_ASC_NODE": 222.8577, "ARG_OF_PERICENTER": 51.6309, "MEAN_ANOMALY": 319.389, "EPHEMERIS_TYPE": 0, "CLASSIFICATION_TYPE": "U", "NORAD_CAT_ID": 27663, "ELEMENT_SET_NO": 999, "REV_AT_EPOCH": 16733, "BSTAR": 0, "MEAN_MOTION_DOT": 4.2e-07, "MEAN_MOTION_DDOT": 0, "GROUP": "gps-ops"}, "tle": {"line1": "1 27663U 03005A   25334.68787567  .00000042  00000+0  00000+0 0  9997", "line2": "2 27663  54.9265 222.8577 0146957  51.6309 319.3890  2.00571469167333"}}, "geometry": {"type": "Point", "coordinates": [-140.22497102776623, -4.358089044190009]}}, {"type": "Feature", "properties": {"norad_id": 28190, "name": "GPS BIIR-11 (PRN 19)", "group": "gps-ops", "lat": 20.15112977278368, "lon": 88.77850350317507, "alt_km": 19899.256074059886, "timestamp": "2025-12-01T03:58:49.191061+00:00", "meta": {"OBJECT_NAME": "GPS BIIR-11 (PRN 19)", "OBJECT_ID": "2004-009A", "EPOCH": "2025-11-26T05:14:39.537024", "MEAN_MOTION": 2.00561394, "ECCENTRICITY": 0.01080929, "INCLINATION": 55.0011, "RA_OF_ASC_NODE": 283.885, "ARG_OF_PERICENTER": 167.3745, "MEAN_ANOMALY": 15.773, "EPHEMERIS_TYPE": 0, "CLASSIFICATION_TYPE": "U", "NORAD_CAT_ID": 28190, "ELEMENT_SET_NO": 999, "REV_AT_EPOCH": 15887, "BSTAR": 0, "MEAN_MOTION_DOT": -2.4e-07, "MEAN_MOTION_DDOT": 0, "GROUP": "gps-ops"}, "tle": {"line1": "1 28190U 04009A   25330.21851316 -.00000024  00000+0  00000+0 0  9998", "line2": "2 28190  55.0011 283.8850 0108092 167.3745  15.7730  2.00561394158873"}}, "geometry": {"type": "Point", "coordinates": [88.77850350317507, 20.15112977278368]}}, {"type": "Feature", "properties": {"norad_id": 28474, "name": "GPS BIIR-13 (PRN 02)", "group": "gps-ops", "lat": -26.73379494492342, "lon": 173.33938244319913, "alt_km": 20220.48245382113, "timestamp": "2025-12-01T03:58:49.191076+00:00", "meta": {"OBJECT_NAME": "GPS BIIR-13 (PRN 02)", "OBJECT_ID": "2004-045A", "EPOCH": "2025-11-30T14:54:45.885024", "MEAN_MOTION": 2.00568806, "ECCENTRICITY": 0.0170487, "INCLINATION": 55.2466, "RA_OF_ASC_NODE": 332.8936, "ARG_OF_PERICENTER": 308.7243, "MEAN_ANOMALY": 233.2493, "EPHEMERIS_TYPE": 0, "CLASSIFICATION_TYPE": "U", "NORAD_CAT_ID": 28474, "ELEMENT_SET_NO": 999, "REV_AT_EPOCH": 15444, "BSTAR": 0, "MEAN_MOTION_DOT": -5.2e-07, "MEAN_MOTION_DDOT": 0, "GROUP": "gps-ops"}, "tle": {"line1": "1 28474U 04045A   25334.62136441 -.00000052  00000+0  00000+0 0  9998", "line2": "2 28474  55.2466 332.8936 0170487 308.7243 233.2493  2.00568806154442"}}, "geometry": {"type": "Point", "coordinates": [173.33938244319913, -26.73379494492342]}}, {"type": "Feature", "properties": {"norad_id": 28874, "name": "GPS BIIRM-1 (PRN 17)", "group": "gps-ops", "lat": 6.001021187099135, "lon": 96.93370217284024, "alt_km": 20360.281729629507, "timestamp": "2025-12-01T03:58:49.191108+00:00", "meta": {"OBJECT_NAME": "GPS BIIRM-1 (PRN 17)", "OBJECT_ID": "2005-038A", "EPOCH": "2025-11-30T16:16:45.057792", "MEAN_MOTION": 2.00548966, "ECCENTRICITY": 0.0132878, "INCLINATION": 55.0429, "RA_OF_ASC_NODE": 281.1867, "ARG_OF_PERICENTER": 293.3584, "MEAN_ANOMALY": 248.5646, "EPHEMERIS_TYPE": 0, "CLASSIFICATION_TYPE": "U", "NORAD_CAT_ID": 28874, "ELEMENT_SET_NO": 999, "REV_AT_EPOCH": 14785, "BSTAR": 0, "MEAN_MOTION_DOT": -4.1e-07, "MEAN_MOTION_DDOT": 0, "GROUP": "gps-ops"}, "tle": {"line1": "1 28874U 05038A   25334.67829928 -.00000041  00000+0  00000+0 0  9997", "line2": "2 28874  55.0429 281.1867 0132878 293.3584 248.5646  2.00548966147852"}}, "geometry": {"type": "Point", "coordinates": [96.93370217284024, 6.001021187099135]}}, {"type": "Feature", "properties": {"norad_id": 29486, "name": "GPS BIIRM-2 (PRN 31)", "group": "gps-ops", "lat": 52.99544385014282, "lon": -130.6390149672297, "alt_km": 19920.81244480724, "timestamp": "2025-12-01T03:58:49.191126+00:00", "meta": {"OBJECT_NAME": "GPS BIIRM-2 (PRN 31)", "OBJECT_ID": "2006-042A", "EPOCH": "2025-11-30T13:49:49.435104", "MEAN_MOTION": 2.00554533, "ECCENTRICITY": 0.0107364, "INCLINATION": 54.6926, "RA_OF_ASC_NODE": 159.2234, "ARG_OF_PERICENTER": 51.6693, "MEAN_ANOMALY": 320.3415, "EPHEMERIS_TYPE": 0, "CLASSIFICATION_TYPE": "U", "NORAD_CAT_ID": 29486, "ELEMENT_SET_NO": 999, "REV_AT_EPOCH": 14041, "BSTAR": 0, "MEAN_MOTION_DOT": 1.29e-06, "MEAN_MOTION_DDOT": 0, "GROUP": "gps-ops"}, "tle": {"line1": "1 29486U 06042A   25334.57626661  .00000129  00000+0  00000+0 0  9997", "line2": "2 29486  54.6926 159.2234 0107364  51.6693 320.3415  2.00554533140415"}}, "geometry": {"type": "Point", "coordinates": [-130.6390149672297, 52.99544385014282]}}, {"type": "Feature", "properties": {"norad_id": 29601, "name": "GPS BIIRM-3 (PRN 12)", "group": "gps-ops", "lat": 35.18236751443489, "lon": 12.267641338115803, "alt_km": 20020.656783089307, "timestamp": "2025-12-01T03:58:49.191140+00:00", "meta": {"OBJECT_NAME": "GPS BIIRM-3 (PRN 12)", "OBJECT_ID": "2006-052A", "EPOCH": "2025-11-29T23:36:43.567776", "MEAN_MOTION": 2.00572573, "ECCENTRICITY": 0.00874294, "INCLINATION": 54.9734, "RA_OF_ASC_NODE": 221.9046, "ARG_OF_PERICENTER": 87.3088, "MEAN_ANOMALY": 273.766, "EPHEMERIS_TYPE": 0, "CLASSIFICATION_TYPE": "U", "NORAD_CAT_ID": 29601, "ELEMENT_SET_NO": 999, "REV_AT_EPOCH": 13941, "BSTAR": 0, "MEAN_MOTION_DOT": 3.8e-07, "MEAN_MOTION_DDOT": 0, "GROUP": "gps-ops"}, "tle": {"line1": "1 29601U 06052A   25333.98383759  .00000038  00000+0  00000+0 0  9998", "line2": "2 29601  54.9734 221.9046 0087429  87.3088 273.7660  2.00572573139410"}}, "geometry": {"type": "Point", "coordinates": [12.267641338115803, 35.18236751443489]}}, {"type": "Feature", "properties": {"norad_id": 32260, "name": "GPS BIIRM-4 (PRN 15)", "group": "gps-ops", "lat": -53.70000963065821, "lon": 6.031139493747967, "alt_km": 20617.736836874486, "timestamp": "2025-12-01T03:58:49.191158+00:00", "meta": {"OBJECT_NAME": "GPS BIIRM-4 (PRN 15)", "OBJECT_ID": "2007-047A", "EPOCH": "2025-11-29T18:58:26.203584", "MEAN_MOTION": 2.00564988, "ECCENTRICITY": 0.01644108, "INCLINATION": 53.9462, "RA_OF_ASC_NODE": 88.2935, "ARG_OF_PERICENTER": 85.0909, "MEAN_ANOMALY": 276.7728, "EPHEMERIS_TYPE": 0, "CLASSIFICATION_TYPE": "U", "NORAD_CAT_ID": 32260, "ELEMENT_SET_NO": 999, "REV_AT_EPOCH": 13281, "BSTAR": 0, "MEAN_MOTION_DOT": 1.1e-07, "MEAN_MOTION_DDOT": 0, "GROUP": "gps-ops"}, "tle": {"line1": "1 32260U 07047A   25333.79058106  .00000011  00000+0  00000+0 0  9993", "line2": "2 32260  53.9462  88.2935 0164410  85.0909 276.7728  2.00564988132812"}}, "geometry": {"type": "Point", "coordinates": [6.031139493747967, -53.70000963065821]}}]}